{
    "links": {
        "self": "http://www.neowsapp.com/rest/v1/neo/3765704?api_key=iIulBulltgU6a56xZRHN4H3l9WmuAYTsLGpBGhQ2"
    },
    "id": "3765704",
    "neo_reference_id": "3765704",
    "name": "(2016 XA18)",
    "designation": "2016 XA18",
    "nasa_jpl_url": "http://ssd.jpl.nasa.gov/sbdb.cgi?sstr=3765704",
    "absolute_magnitude_h": 23.1,
    "estimated_diameter": {
        "kilometers": {
            "estimated_diameter_min": 0.063760979,
            "estimated_diameter_max": 0.1425738833
        },
        "meters": {
            "estimated_diameter_min": 63.7609789875,
            "estimated_diameter_max": 142.5738833281
        },
        "miles": {
            "estimated_diameter_min": 0.0396192233,
            "estimated_diameter_max": 0.0885912765
        },
        "feet": {
            "estimated_diameter_min": 209.1895703015,
            "estimated_diameter_max": 467.7620993781
        }
    },
    "is_potentially_hazardous_asteroid": false,
    "close_approach_data": [
        {
            "close_approach_date": "2016-12-12",
            "close_approach_date_full": "2016-Dec-12 22:28",
            "epoch_date_close_approach": 1481581680000,
            "relative_velocity": {
                "kilometers_per_second": "28.823745763",
                "kilometers_per_hour": "103765.4847469688",
                "miles_per_hour": "64475.8368973596"
            },
            "miss_distance": {
                "astronomical": "0.0507447338",
                "lunar": "19.7397014482",
                "kilometers": "7591304.090197006",
                "miles": "4717017.6306344428"
            },
            "orbiting_body": "Earth"
        }
    ],
    "orbital_data": {
        "orbit_id": "7",
        "orbit_determination_date": "2017-08-10 06:20:13",
        "first_observation_date": "2016-12-05",
        "last_observation_date": "2016-12-12",
        "data_arc_in_days": 7,
        "observations_used": 111,
        "orbit_uncertainty": "8",
        "minimum_orbit_intersection": ".0220412",
        "jupiter_tisserand_invariant": "3.318",
        "epoch_osculation": "2457730.5",
        "eccentricity": ".8337999357845657",
        "semi_major_axis": "1.94526992278934",
        "inclination": "17.73679171433016",
        "ascending_node_longitude": "262.9367961366624",
        "orbital_period": "990.9876329409465",
        "perihelion_distance": ".3233039860839412",
        "perihelion_argument": "294.1532983664408",
        "aphelion_distance": "3.567235859494738",
        "perihelion_time": "2457777.586274631729",
        "mean_anomaly": "342.8947826350598",
        "mean_motion": ".3632739582547874",
        "equinox": "J2000",
        "orbit_class": {
            "orbit_class_type": "APO",
            "orbit_class_description": "Near-Earth asteroid orbits which cross the Earth’s orbit similar to that of 1862 Apollo",
            "orbit_class_range": "a (semi-major axis) > 1.0 AU; q (perihelion) < 1.017 AU"
        }
    },
    "is_sentry_object": false
}